[
    {
        "Altitude(m)": 706755.4103122439,
        "Argument of Periapsis(deg)": 0.005695060593313534,
        "Eccentricity": 0.0,
        "Inclination(deg)": 45.0,
        "Latitude(deg)": -15.592025235823863,
        "Longitude(deg)": 50.74292253966576,
        "Mean Anomaly(deg)": -157.86979167625964,
        "RAAN(deg)": 314.9946240292709,
        "Satellite Name": "Constellation 1 1398",
        "Satellite Number": 1398,
        "Semi-Major Axis(m)": 7083131.272910544,
        "Time(s)": 95
    },
    {
        "Altitude(m)": 706767.4092375601,
        "Argument of Periapsis(deg)": 0.00575500859955894,
        "Eccentricity": 0.0,
        "Inclination(deg)": 45.0,
        "Latitude(deg)": -15.633476881766017,
        "Longitude(deg)": 50.784959796432894,
        "Mean Anomaly(deg)": -157.8090905360097,
        "RAAN(deg)": 314.99456744010536,
        "Satellite Name": "Constellation 1 1398",
        "Satellite Number": 1398,
        "Semi-Major Axis(m)": 7083131.272910544,
        "Time(s)": 96
    },
    {
        "Altitude(m)": 706779.4205498863,
        "Argument of Periapsis(deg)": 0.005814956605804345,
        "Eccentricity": 0.0,
        "Inclination(deg)": 45.0,
        "Latitude(deg)": -15.674918570625021,
        "Longitude(deg)": 50.82701567424265,
        "Mean Anomaly(deg)": -157.74838939575977,
        "RAAN(deg)": 314.9945108509398,
        "Satellite Name": "Constellation 1 1398",
        "Satellite Number": 1398,
        "Semi-Major Axis(m)": 7083131.272910544,
        "Time(s)": 97
    },
    {
        "Altitude(m)": 706791.4442124834,
        "Argument of Periapsis(deg)": 0.00587490461204975,
        "Eccentricity": 0.0,
        "Inclination(deg)": 45.0,
        "Latitude(deg)": -15.716350271203309,
        "Longitude(deg)": 50.86909005966329,
        "Mean Anomaly(deg)": -157.6876882555099,
        "RAAN(deg)": 314.9944542617742,
        "Satellite Name": "Constellation 1 1398",
        "Satellite Number": 1398,
        "Semi-Major Axis(m)": 7083131.272910544,
        "Time(s)": 98
    },
    {
        "Altitude(m)": 706803.4801885467,
        "Argument of Periapsis(deg)": 0.005934852618295156,
        "Eccentricity": 0.0,
        "Inclination(deg)": 45.0,
        "Latitude(deg)": -15.757771952267507,
        "Longitude(deg)": 50.91118300739051,
        "Mean Anomaly(deg)": -157.62698711526,
        "RAAN(deg)": 314.9943976726086,
        "Satellite Name": "Constellation 1 1398",
        "Satellite Number": 1398,
        "Semi-Major Axis(m)": 7083131.272910544,
        "Time(s)": 99
    },
    {
        "Altitude(m)": 706815.5284412047,
        "Argument of Periapsis(deg)": 0.005994800624540561,
        "Eccentricity": 0.0,
        "Inclination(deg)": 45.0,
        "Latitude(deg)": -15.799183582548181,
        "Longitude(deg)": 50.95329457214972,
        "Mean Anomaly(deg)": -157.56628597501003,
        "RAAN(deg)": 314.99434108344303,
        "Satellite Name": "Constellation 1 1398",
        "Satellite Number": 1398,
        "Semi-Major Axis(m)": 7083131.272910544,
        "Time(s)": 100
    },
    {
        "Altitude(m)": 706827.5889335279,
        "Argument of Periapsis(deg)": 0.006054748630785968,
        "Eccentricity": 0.0,
        "Inclination(deg)": 45.0,
        "Latitude(deg)": -15.840585130739882,
        "Longitude(deg)": 50.99542480869627,
        "Mean Anomaly(deg)": -157.5055848347602,
        "RAAN(deg)": 314.9942844942775,
        "Satellite Name": "Constellation 1 1398",
        "Satellite Number": 1398,
        "Semi-Major Axis(m)": 7083131.272910544,
        "Time(s)": 101
    },
    {
        "Altitude(m)": 706839.6616285199,
        "Argument of Periapsis(deg)": 0.006114696637031373,
        "Eccentricity": 0.0,
        "Inclination(deg)": 45.0,
        "Latitude(deg)": -15.881976565501116,
        "Longitude(deg)": 51.03757377181573,
        "Mean Anomaly(deg)": -157.44488369451034,
        "RAAN(deg)": 314.9942279051119,
        "Satellite Name": "Constellation 1 1398",
        "Satellite Number": 1398,
        "Semi-Major Axis(m)": 7083131.272910544,
        "Time(s)": 102
    },
    {
        "Altitude(m)": 706851.7464891291,
        "Argument of Periapsis(deg)": 0.006174644643276778,
        "Eccentricity": 0.0,
        "Inclination(deg)": 45.0,
        "Latitude(deg)": -15.923357855454263,
        "Longitude(deg)": 51.0797415163237,
        "Mean Anomaly(deg)": -157.3841825542604,
        "RAAN(deg)": 314.99417131594635,
        "Satellite Name": "Constellation 1 1398",
        "Satellite Number": 1398,
        "Semi-Major Axis(m)": 7083131.272910544,
        "Time(s)": 103
    },
    {
        "Altitude(m)": 706863.8434782337,
        "Argument of Periapsis(deg)": 0.006234592649522184,
        "Eccentricity": 0.0,
        "Inclination(deg)": 45.0,
        "Latitude(deg)": -15.964728969185412,
        "Longitude(deg)": 51.12192792896875,
        "Mean Anomaly(deg)": -157.3234814140105,
        "RAAN(deg)": 314.99411472678077,
        "Satellite Name": "Constellation 1 1398",
        "Satellite Number": 1398,
        "Semi-Major Axis(m)": 7083131.272910544,
        "Time(s)": 104
    },
    {
        "Altitude(m)": 706875.9525586563,
        "Argument of Periapsis(deg)": 0.00629454065576759,
        "Eccentricity": 0.0,
        "Inclination(deg)": 45.0,
        "Latitude(deg)": -16.00608987524356,
        "Longitude(deg)": 51.164133400820624,
        "Mean Anomaly(deg)": -157.26278027376065,
        "RAAN(deg)": 314.9940581376152,
        "Satellite Name": "Constellation 1 1398",
        "Satellite Number": 1398,
        "Semi-Major Axis(m)": 7083131.272910544,
        "Time(s)": 105
    },
    {
        "Altitude(m)": 706888.073693154,
        "Argument of Periapsis(deg)": 0.006354488662012995,
        "Eccentricity": 0.0,
        "Inclination(deg)": 45.0,
        "Latitude(deg)": -16.047440542142063,
        "Longitude(deg)": 51.20635781868823,
        "Mean Anomaly(deg)": -157.2020791335107,
        "RAAN(deg)": 314.9940015484496,
        "Satellite Name": "Constellation 1 1398",
        "Satellite Number": 1398,
        "Semi-Major Axis(m)": 7083131.272910544,
        "Time(s)": 106
    },
    {
        "Altitude(m)": 706900.2068444261,
        "Argument of Periapsis(deg)": 0.006414436668258401,
        "Eccentricity": 0.0,
        "Inclination(deg)": 45.0,
        "Latitude(deg)": -16.088780938357033,
        "Longitude(deg)": 51.24860123750738,
        "Mean Anomaly(deg)": -157.14137799326076,
        "RAAN(deg)": 314.9939449592841,
        "Satellite Name": "Constellation 1 1398",
        "Satellite Number": 1398,
        "Semi-Major Axis(m)": 7083131.272910544,
        "Time(s)": 107
    },
    {
        "Altitude(m)": 706912.351975103,
        "Argument of Periapsis(deg)": 0.0064743846745038075,
        "Eccentricity": 0.0,
        "Inclination(deg)": 45.0,
        "Latitude(deg)": -16.130111032327953,
        "Longitude(deg)": 51.29086371224402,
        "Mean Anomaly(deg)": -157.0806768530109,
        "RAAN(deg)": 314.9938883701185,
        "Satellite Name": "Constellation 1 1398",
        "Satellite Number": 1398,
        "Semi-Major Axis(m)": 7083131.272910544,
        "Time(s)": 108
    },
    {
        "Altitude(m)": 706924.5090477655,
        "Argument of Periapsis(deg)": 0.0065343326807492125,
        "Eccentricity": 0.0,
        "Inclination(deg)": 45.0,
        "Latitude(deg)": -16.171430792457535,
        "Longitude(deg)": 51.33314529789457,
        "Mean Anomaly(deg)": -157.01997571276104,
        "RAAN(deg)": 314.993831780953,
        "Satellite Name": "Constellation 1 1398",
        "Satellite Number": 1398,
        "Semi-Major Axis(m)": 7083131.272910544,
        "Time(s)": 109
    },
    {
        "Altitude(m)": 706936.6780249224,
        "Argument of Periapsis(deg)": 0.0065942806869946176,
        "Eccentricity": 0.0,
        "Inclination(deg)": 45.0,
        "Latitude(deg)": -16.212740187111375,
        "Longitude(deg)": 51.3754460494852,
        "Mean Anomaly(deg)": -156.95927457251116,
        "RAAN(deg)": 314.99377519178734,
        "Satellite Name": "Constellation 1 1398",
        "Satellite Number": 1398,
        "Semi-Major Axis(m)": 7083131.272910544,
        "Time(s)": 110
    },
    {
        "Altitude(m)": 706948.8588690248,
        "Argument of Periapsis(deg)": 0.006654228693240024,
        "Eccentricity": 0.0,
        "Inclination(deg)": 45.0,
        "Latitude(deg)": -16.254039184618232,
        "Longitude(deg)": 51.41776585397574,
        "Mean Anomaly(deg)": -156.8985734322612,
        "RAAN(deg)": 314.99371860262175,
        "Satellite Name": "Constellation 1 1398",
        "Satellite Number": 1398,
        "Semi-Major Axis(m)": 7083131.272910544,
        "Time(s)": 111
    },
    {
        "Altitude(m)": 706961.0515424681,
        "Argument of Periapsis(deg)": 0.006714176699485429,
        "Eccentricity": 0.0,
        "Inclination(deg)": 45.0,
        "Latitude(deg)": -16.295327753268847,
        "Longitude(deg)": 51.46010510264643,
        "Mean Anomaly(deg)": -156.83787229201135,
        "RAAN(deg)": 314.99366201345623,
        "Satellite Name": "Constellation 1 1398",
        "Satellite Number": 1398,
        "Semi-Major Axis(m)": 7083131.272910544,
        "Time(s)": 112
    },
    {
        "Altitude(m)": 706973.2560075722,
        "Argument of Periapsis(deg)": 0.006774124705730835,
        "Eccentricity": 0.0,
        "Inclination(deg)": 45.0,
        "Latitude(deg)": -16.336605861317516,
        "Longitude(deg)": 51.502463682517444,
        "Mean Anomaly(deg)": -156.7771711517614,
        "RAAN(deg)": 314.99360542429065,
        "Satellite Name": "Constellation 1 1398",
        "Satellite Number": 1398,
        "Semi-Major Axis(m)": 7083131.272910544,
        "Time(s)": 113
    }
]